GLOBALSTAR M068 [-]     
1 32266U 07048D   24022.28950216 -.00000061  00000+0  23735-3 0  9991
2 32266  51.9892  62.6291 0001220 107.2104 333.4051 12.62776928752880
GLOBALSTAR M079 [+]     
1 37188U 10054A   24022.81017269 -.00000070  00000+0  18618-3 0  9995
2 37188  52.0025 256.5020 0000707  70.6682   6.8222 12.62265953611870
GLOBALSTAR M074 [+]     
1 37189U 10054B   24022.83728175 -.00000059  00000+0  24969-3 0  9996
2 37189  51.9998 255.8219 0000988  71.1840   9.2677 12.62264713612485
GLOBALSTAR M076 [+]     
1 37190U 10054C   24022.94811755 -.00000061  00000+0  23678-3 0  9996
2 37190  52.0014 255.6119 0000844  39.4369  62.8325 12.62273630612213
GLOBALSTAR M077 [+]     
1 37191U 10054D   24022.85647396 -.00000077  00000+0  14931-3 0  9994
2 37191  52.0043 212.5969 0001110  82.4804  23.8529 12.62269015612574
GLOBALSTAR M075 [+]     
1 37192U 10054E   24022.95639137 -.00000071  00000+0  18155-3 0  9996
2 37192  51.9961 298.1278 0000557  63.9104  16.4768 12.62269818611445
GLOBALSTAR M073 [+]     
1 37193U 10054F   24022.71835778 -.00000073  00000+0  17053-3 0  9998
2 37193  52.0032 212.2755 0001014  82.5191 357.8964 12.62271927613240
GLOBALSTAR M083 [+]     
1 37739U 11033A   24022.57314425 -.00000099  00000+0  28040-4 0  9994
2 37739  51.9846 162.1472 0001038 116.4021 323.6295 12.62265335582240
GLOBALSTAR M088 [+]     
1 37740U 11033B   24022.30887225 -.00000086  00000+0  10136-3 0  9992
2 37740  51.9739  68.8740 0000603 152.0756 287.0907 12.62264188577759
GLOBALSTAR M091 [+]     
1 37741U 11033C   24022.32728230 -.00000082  00000+0  12024-3 0  9999
2 37741  52.0014  31.4585 0000359 160.3945 301.7372 12.62270341578547
GLOBALSTAR M085 [+]     
1 37742U 11033D   24022.07151284 -.00000092  00000+0  63936-4 0  9991
2 37742  51.9895 343.7307 0000230  99.5499 339.4838 12.62266622579025
GLOBALSTAR M081 [+]     
1 37743U 11033E   24022.35435836 -.00000093  00000+0  62378-4 0  9991
2 37743  51.9988 345.3398 0000031  66.3448  98.9294 12.62268598579209
GLOBALSTAR M089 [+]     
1 37744U 11033F   24022.92880455 -.00000075  00000+0  15862-3 0  9991
2 37744  51.9943 297.9155 0000740  40.3344  37.3359 12.62271698580125
GLOBALSTAR M084 [+]     
1 38040U 11080A   24022.71039062 -.00000108  00000+0 -23367-4 0  9998
2 38040  51.9993 165.5957 0000954  83.1551  20.0924 12.62270349558070
GLOBALSTAR M080 [+]     
1 38041U 11080B   24022.60004513 -.00000114  00000+0 -58162-4 0  9998
2 38041  52.0045 167.3591 0000799  75.6858   5.4572 12.62268552558189
GLOBALSTAR M082 [+]     
1 38042U 11080C   24022.45423825 -.00000109  00000+0 -30111-4 0  9991
2 38042  52.0074 123.1945 0001364 130.6476 308.3933 12.62265248558873
GLOBALSTAR M092 [+]     
1 38043U 11080D   24022.82940031 -.00000068  00000+0  20056-3 0  9995
2 38043  52.0056 212.4060 0001182  79.8738  22.4481 12.62275893557370
GLOBALSTAR M090 [+]     
1 38044U 11080E   24022.56469682 -.00000109  00000+0 -30390-4 0  9995
2 38044  51.9884 117.3251 0000973 131.0654 330.9763 12.62265388559008
GLOBALSTAR M086 [+]     
1 38045U 11080F   24022.59208372 -.00000113  00000+0 -51346-4 0  9995
2 38045  51.9896 117.7541 0000543 210.2778 255.4740 12.62266553558952
GLOBALSTAR M097 [+]     
1 39072U 13005A   24022.91170012 -.00000100  00000+0  21464-4 0  9993
2 39072  52.0071  30.8060 0000293 163.5415 196.5462 12.62260046506243
GLOBALSTAR M093 [+]     
1 39073U 13005B   24022.17254683 -.00000087  00000+0  91389-4 0  9996
2 39073  51.9829  27.1779 0000363 175.9701 184.1168 12.62260081506102
GLOBALSTAR M094 [+]     
1 39074U 13005C   24021.93515717 -.00000083  00000+0  11633-3 0  9997
2 39074  51.9973 301.7748 0000442  60.1934 299.8977 12.62271230507708
GLOBALSTAR M096 [+]     
1 39075U 13005D   24022.26533295 -.00000074  00000+0  16876-3 0  9990
2 39075  52.0100 348.8837 0000165 140.8154 219.2724 12.62271466506645
GLOBALSTAR M078 [+]     
1 39076U 13005E   24022.31817116 -.00000050  00000+0  29868-3 0  9993
2 39076  51.9878  73.9288 0001473 122.7343 237.3665 12.62258074505277
GLOBALSTAR M095 [+]     
1 39077U 13005F   24022.50254833 -.00000150  00000+0 -25655-3 0  9998
2 39077  51.9813  70.8160 0001069 149.5984 210.4944 12.62262490505157
GLOBALSTAR M087 [+]     
1 52888U 22064A   24022.35257535 -.00000087  00000+0  79279-4 0  9993
2 52888  51.9782   0.3828 0009537 354.5185   5.5610 13.37563079 77871
